CTC1_L_00472001-01
1 32734U 24976KG  26070.40837963  .00000000  00000+0  00000-0 0  9991
2 32734 101.2000   0.0000 0000000   0.0000   0.0000 12.76394637    14
CTC1_L_00472001-02
1 32735U 24118FM  26070.40837963  .00000000  00000+0  00000-0 0  9990
2 32735 101.2000   0.0000 0000000   0.0000  90.0000 12.76394637    14
CTC1_L_00472001-03
1 32736U 26280IS  26070.40837963  .00000000  00000+0  00000-0 0  9993
2 32736 101.2000   0.0000 0000000   0.0000 180.0000 12.76394637    15
CTC1_L_00472001-04
1 32737U 25571NA  26070.40837963  .00000000  00000+0  00000-0 0  9996
2 32737 101.2000   0.0000 0000000   0.0000 270.0000 12.76394637    16
CTC1_L_00472002-01
1 32738U 25167VZ  26070.40837963  .00000000  00000+0  00000-0 0  9998
2 32738 101.2000  12.0000 0000000   0.0000  12.0000 12.76394637    14
CTC1_L_00472002-02
1 32739U 23810PL  26070.40837963  .00000000  00000+0  00000-0 0  9992
2 32739 101.2000  12.0000 0000000   0.0000 102.0000 12.76394637    15
CTC1_L_00472002-03
1 32740U 25599DS  26070.40837963  .00000000  00000+0  00000-0 0  9990
2 32740 101.2000  12.0000 0000000   0.0000 192.0000 12.76394637    16
CTC1_L_00472002-04
1 32741U 24718GQ  26070.40837963  .00000000  00000+0  00000-0 0  9993
2 32741 101.2000  12.0000 0000000   0.0000 282.0000 12.76394637    17
CTC1_L_00472003-01
1 32742U 25604KU  26070.40837963  .00000000  00000+0  00000-0 0  9999
2 32742 101.2000  24.0000 0000000   0.0000  24.0000 12.76394637    15
CTC1_L_00472003-02
1 32743U 25040LZ  26070.40837963  .00000000  00000+0  00000-0 0  9994
2 32743 101.2000  24.0000 0000000   0.0000 114.0000 12.76394637    16
CTC1_L_00472003-03
1 32744U 25723EX  26070.40837963  .00000000  00000+0  00000-0 0  9993
2 32744 101.2000  24.0000 0000000   0.0000 204.0000 12.76394637    17
CTC1_L_00472003-04
1 32745U 22763SH  26070.40837963  .00000000  00000+0  00000-0 0  9995
2 32745 101.2000  24.0000 0000000   0.0000 294.0000 12.76394637    17
CTC1_L_00472004-01
1 32746U 24792TG  26070.40837963  .00000000  00000+0  00000-0 0  9990
2 32746 101.2000  36.0000 0000000   0.0000  36.0000 12.76394637    15
CTC1_L_00472004-02
1 32747U 25919UK  26070.40837963  .00000000  00000+0  00000-0 0  9993
2 32747 101.2000  36.0000 0000000   0.0000 126.0000 12.76394637    16
CTC1_L_00472004-03
1 32748U 25844SR  26070.40837963  .00000000  00000+0  00000-0 0  9991
2 32748 101.2000  36.0000 0000000   0.0000 216.0000 12.76394637    17
CTC1_L_00472004-04
1 32749U 25832JI  26070.40837963  .00000000  00000+0  00000-0 0  9999
2 32749 101.2000  36.0000 0000000   0.0000 306.0000 12.76394637    18
CTC1_L_00472005-01
1 32750U 22322NE  26070.40837963  .00000000  00000+0  00000-0 0  9992
2 32750 101.2000  48.0000 0000000   0.0000  48.0000 12.76394637    16
CTC1_L_00472005-02
1 32751U 25944YG  26070.40837963  .00000000  00000+0  00000-0 0  9996
2 32751 101.2000  48.0000 0000000   0.0000 138.0000 12.76394637    17
CTC1_L_00472005-03
1 32752U 26679DI  26070.40837963  .00000000  00000+0  00000-0 0  9993
2 32752 101.2000  48.0000 0000000   0.0000 228.0000 12.76394637    18
CTC1_L_00472005-04
1 32753U 26014PG  26070.40837963  .00000000  00000+0  00000-0 0  9997
2 32753 101.2000  48.0000 0000000   0.0000 318.0000 12.76394637    19
CTC1_L_00472006-01
1 32754U 23485QK  26070.40837963  .00000000  00000+0  00000-0 0  9997
2 32754 101.2000  60.0000 0000000   0.0000  60.0000 12.76394637    18
CTC1_L_00472006-02
1 32755U 26630CQ  26070.40837963  .00000000  00000+0  00000-0 0  9993
2 32755 101.2000  60.0000 0000000   0.0000 150.0000 12.76394637    19
CTC1_L_00472006-03
1 32756U 26010DH  26070.40837963  .00000000  00000+0  00000-0 0  9996
2 32756 101.2000  60.0000 0000000   0.0000 240.0000 12.76394637    10
CTC1_L_00472006-04
1 32757U 23094IT  26070.40837963  .00000000  00000+0  00000-0 0  9996
2 32757 101.2000  60.0000 0000000   0.0000 330.0000 12.76394637    11
CTC1_L_00472007-01
1 32758U 23245EE  26070.40837963  .00000000  00000+0  00000-0 0  9995
2 32758 101.2000  72.0000 0000000   0.0000  72.0000 12.76394637    18
CTC1_L_00472007-02
1 32759U 23920VK  26070.40837963  .00000000  00000+0  00000-0 0  9996
2 32759 101.2000  72.0000 0000000   0.0000 162.0000 12.76394637    19
CTC1_L_00472007-03
1 32760U 24408ME  26070.40837963  .00000000  00000+0  00000-0 0  9990
2 32760 101.2000  72.0000 0000000   0.0000 252.0000 12.76394637    11
CTC1_L_00472007-04
1 32761U 26705AP  26070.40837963  .00000000  00000+0  00000-0 0  9993
2 32761 101.2000  72.0000 0000000   0.0000 342.0000 12.76394637    12
CTC1_L_00472008-01
1 32762U 23890LT  26070.40837963  .00000000  00000+0  00000-0 0  9996
2 32762 101.2000  84.0000 0000000   0.0000  84.0000 12.76394637    19
CTC1_L_00472008-02
1 32763U 24627YJ  26070.40837963  .00000000  00000+0  00000-0 0  9996
2 32763 101.2000  84.0000 0000000   0.0000 174.0000 12.76394637    10
CTC1_L_00472008-03
1 32764U 23496LU  26070.40837963  .00000000  00000+0  00000-0 0  9990
2 32764 101.2000  84.0000 0000000   0.0000 264.0000 12.76394637    11
CTC1_L_00472008-04
1 32765U 26192BY  26070.40837963  .00000000  00000+0  00000-0 0  9997
2 32765 101.2000  84.0000 0000000   0.0000 354.0000 12.76394637    12
CTC1_L_00472009-01
1 32766U 22465NO  26070.40837963  .00000000  00000+0  00000-0 0  9997
2 32766 101.2000  96.0000 0000000   0.0000  96.0000 12.76394637    19
CTC1_L_00472009-02
1 32767U 26216SM  26070.40837963  .00000000  00000+0  00000-0 0  9996
2 32767 101.2000  96.0000 0000000   0.0000 186.0000 12.76394637    10
CTC1_L_00472009-03
1 32768U 25042QL  26070.40837963  .00000000  00000+0  00000-0 0  9993
2 32768 101.2000  96.0000 0000000   0.0000 276.0000 12.76394637    11
CTC1_L_00472009-04
1 32769U 25451LW  26070.40837963  .00000000  00000+0  00000-0 0  9998
2 32769 101.2000  96.0000 0000000   0.0000   6.0000 12.76394637    13
CTC1_L_00472010-01
1 32770U 23431NU  26070.40837963  .00000000  00000+0  00000-0 0  9996
2 32770 101.2000 108.0000 0000000   0.0000 108.0000 12.76394637    12
CTC1_L_00472010-02
1 32771U 23756PX  26070.40837963  .00000000  00000+0  00000-0 0  9997
2 32771 101.2000 108.0000 0000000   0.0000 198.0000 12.76394637    12
CTC1_L_00472010-03
1 32772U 25887NB  26070.40837963  .00000000  00000+0  00000-0 0  9995
2 32772 101.2000 108.0000 0000000   0.0000 288.0000 12.76394637    13
CTC1_L_00472010-04
1 32773U 26952AG  26070.40837963  .00000000  00000+0  00000-0 0  9990
2 32773 101.2000 108.0000 0000000   0.0000  18.0000 12.76394637    15
CTC1_L_00472011-01
1 32774U 25886PV  26070.40837963  .00000000  00000+0  00000-0 0  9996
2 32774 101.2000 120.0000 0000000   0.0000 120.0000 12.76394637    14
CTC1_L_00472011-02
1 32775U 23601PE  26070.40837963  .00000000  00000+0  00000-0 0  9990
2 32775 101.2000 120.0000 0000000   0.0000 210.0000 12.76394637    15
CTC1_L_00472011-03
1 32776U 23658MZ  26070.40837963  .00000000  00000+0  00000-0 0  9993
2 32776 101.2000 120.0000 0000000   0.0000 300.0000 12.76394637    16
CTC1_L_00472011-04
1 32777U 24566UR  26070.40837963  .00000000  00000+0  00000-0 0  9993
2 32777 101.2000 120.0000 0000000   0.0000  30.0000 12.76394637    17
CTC1_L_00472012-01
1 32778U 22965VN  26070.40837963  .00000000  00000+0  00000-0 0  9995
2 32778 101.2000 132.0000 0000000   0.0000 132.0000 12.76394637    14
CTC1_L_00472012-02
1 32779U 23003GJ  26070.40837963  .00000000  00000+0  00000-0 0  9990
2 32779 101.2000 132.0000 0000000   0.0000 222.0000 12.76394637    15
CTC1_L_00472012-03
1 32780U 26494IP  26070.40837963  .00000000  00000+0  00000-0 0  9999
2 32780 101.2000 132.0000 0000000   0.0000 312.0000 12.76394637    17
CTC1_L_00472012-04
1 32781U 26609OI  26070.40837963  .00000000  00000+0  00000-0 0  9998
2 32781 101.2000 132.0000 0000000   0.0000  42.0000 12.76394637    18
CTC1_L_00472013-01
1 32782U 22638YY  26070.40837963  .00000000  00000+0  00000-0 0  9997
2 32782 101.2000 144.0000 0000000   0.0000 144.0000 12.76394637    15
CTC1_L_00472013-02
1 32783U 22042DK  26070.40837963  .00000000  00000+0  00000-0 0  9997
2 32783 101.2000 144.0000 0000000   0.0000 234.0000 12.76394637    16
CTC1_L_00472013-03
1 32784U 25102HM  26070.40837963  .00000000  00000+0  00000-0 0  9998
2 32784 101.2000 144.0000 0000000   0.0000 324.0000 12.76394637    17
CTC1_L_00472013-04
1 32785U 25283DF  26070.40837963  .00000000  00000+0  00000-0 0  9999
2 32785 101.2000 144.0000 0000000   0.0000  54.0000 12.76394637    18
CTC1_L_00472014-01
1 32786U 24310C   26070.40837963  .00000000  00000+0  00000-0 0  9990
2 32786 101.2000 156.0000 0000000   0.0000 156.0000 12.76394637    15
CTC1_L_00472014-02
1 32787U 23271EV  26070.40837963  .00000000  00000+0  00000-0 0  9996
2 32787 101.2000 156.0000 0000000   0.0000 246.0000 12.76394637    16
CTC1_L_00472014-03
1 32788U 24724BE  26070.40837963  .00000000  00000+0  00000-0 0  9991
2 32788 101.2000 156.0000 0000000   0.0000 336.0000 12.76394637    17
CTC1_L_00472014-04
1 32789U 22500RK  26070.40837963  .00000000  00000+0  00000-0 0  9992
2 32789 101.2000 156.0000 0000000   0.0000  66.0000 12.76394637    18
CTC1_L_00472015-01
1 32790U 23478DH  26070.40837963  .00000000  00000+0  00000-0 0  9999
2 32790 101.2000 168.0000 0000000   0.0000 168.0000 12.76394637    16
CTC1_L_00472015-02
1 32791U 22584QI  26070.40837963  .00000000  00000+0  00000-0 0  9997
2 32791 101.2000 168.0000 0000000   0.0000 258.0000 12.76394637    17
CTC1_L_00472015-03
1 32792U 25695OS  26070.40837963  .00000000  00000+0  00000-0 0  9994
2 32792 101.2000 168.0000 0000000   0.0000 348.0000 12.76394637    18
CTC1_L_00472015-04
1 32793U 24500GK  26070.40837963  .00000000  00000+0  00000-0 0  9999
2 32793 101.2000 168.0000 0000000   0.0000  78.0000 12.76394637    19
CTC1_L_00472016-01
1 32794U 26285SW  26070.40837963  .00000000  00000+0  00000-0 0  9992
2 32794 101.2000 180.0000 0000000   0.0000 180.0000 12.76394637    18
CTC1_L_00472016-02
1 32795U 24229JL  26070.40837963  .00000000  00000+0  00000-0 0  9999
2 32795 101.2000 180.0000 0000000   0.0000 270.0000 12.76394637    19
